PERSEUS-M1              
1 40039U 14033AF  26179.81088167  .00001539  00000+0  14371-3 0  9997
2 40039  97.9649 124.1337 0009870 257.6288 102.3828 14.95670765652372
POLYITAN-1              
1 40042U 14033AJ  26179.79805317  .00018322  00000+0  56432-3 0  9994
2 40042  98.0938 207.1603 0008840 109.6979 250.5216 15.33660497655370
TIGRISAT                
1 40043U 14033AK  26179.90612789  .00001746  00000+0  20553-3 0  9994
2 40043  97.7845 329.6501 0049978  37.6049 322.8644 14.85202555647367
AEROCUBE 6A             
1 40045U 14033AM  26179.91218381  .00004167  00000+0  35097-3 0  9996
2 40045  97.7224 346.7377 0038037 337.1262  22.8265 14.98204213648375
AEROCUBE 6B             
1 40046U 14033AN  26179.90309309  .00004087  00000+0  33164-3 0  9991
2 40046  97.7220 346.5449 0037673 328.0885  31.8056 14.99668419648512
CANX-4                  
1 40055U 14034C   26179.90560983  .00000887  00000+0  12093-3 0  9991
2 40055  98.3107  55.6481 0012268 339.5149  20.5569 14.81284612646264
CANX-5                  
1 40056U 14034D   26179.63371117  .00000890  00000+0  12131-3 0  9998
2 40056  98.3110  55.4105 0012297 340.6401  19.4342 14.81301414637037
UKUBE-1                 
1 40074U 14037F   26179.93529832  .00007298  00000+0  40921-3 0  9990
2 40074  98.4234 184.4427 0003218 113.3260 246.8307 15.13729647650339
BRITE-PL2 (HEWELIUSZ)   
1 40119U 14049B   26179.88828973  .00001483  00000+0  14208-3 0  9994
2 40119  97.9109 291.9792 0015251  72.6737 287.6150 14.94635715643194
AEROCUBE 5C             
1 40965U 15058B   26179.50259990  .00001924  00000+0  17771-3 0  9998
2 40965  64.7660 227.3878 0131315  58.8513 302.5399 14.91497504367344
AEROCUBE 7              
1 40966U 15058C   26179.80085160  .00003105  00000+0  25362-3 0  9996
2 40966  64.7603 208.4376 0121065  57.0952 304.1741 14.95790646367698
FOX-1A (AO-85)          
1 40967U 15058D   26179.68800562  .00001863  00000+0  17487-3 0  9992
2 40967  64.7745 243.2418 0131155  52.1162 309.1726 14.91015719115281
SINOD-D 1               
1 40968U 15058E   26179.57685606  .00002906  00000+0  23787-3 0  9990
2 40968  64.7737 223.2432 0119813  48.5852 312.5483 14.95968824118367
SNAP-3 ALICE            
1 40970U 15058G   26179.89429303  .00133211  00000+0  14119-2 0  9990
2 40970  64.7503  63.3819 0024331   3.6059 356.5258 15.63087219118717
LMRST-SAT               
1 40971U 15058H   26179.78043315  .00001785  00000+0  16918-3 0  9994
2 40971  64.7751 239.3147 0132764  54.0988 307.2361 14.90633145115284
SNAP-3 EDDIE            
1 40972U 15058J   26179.93900620  .00131177  00000+0  13268-2 0  9996
2 40972  64.7417  53.8633 0024962   6.8490 353.2994 15.64258823120867
PROPCUBE 3              
1 40973U 15058K   26179.51982500  .00002595  00000+0  22101-3 0  9996
2 40973  64.7668 217.1270 0124700  55.4370 305.8436 14.94311944116490
BISONSAT                
1 40974U 15058L   26179.97071172  .00014850  00000+0  70703-3 0  9999
2 40974  64.7575 135.5384 0080345  42.5827 318.1489 15.16493029117404
SNAP-3 JIMI             
1 40975U 15058M   26178.37396855  .00006192  00000+0  42414-3 0  9999
2 40975  64.7629 187.5396 0106706  51.2733 309.7864 15.02391842115752
PROPCUBE 1 (FLORA)      
1 40976U 15058N   26179.94745575  .00001722  00000+0  17015-3 0  9994
2 40976  64.7747 258.7869 0131407  56.3399 305.0165 14.89267911118018
SINOD-D 3               
1 40977U 15058P   26179.55331684  .00002549  00000+0  22117-3 0  9991
2 40977  64.7716 240.3251 0119908  53.6219 307.5885 14.94075866116454
HORYU-4                 
1 41340U 16012D   26179.83254848  .01386511  13187-2  11400-2 0  9994
2 41340  30.9816 352.6613 0009708 339.1156  20.9113 16.13056645572680
RAVAN                   
1 41849U 16067B   26179.94688979  .00050465  00000+0  72824-3 0  9996
2 41849  97.9877  70.8863 0002288 346.7173  13.4019 15.55829275529528
CELTEE 1                
1 41850U 16067C   26179.86120659  .00004831  00000+0  22926-3 0  9999
2 41850  98.0660  47.2246 0001586 127.7116 232.4261 15.19791692527654
OPTICUBE 04             
1 41851U 16067D   26179.54570313  .00002593  00000+0  16483-3 0  9995
2 41851  98.0688  32.4218 0016957  80.4174 279.8969 15.09705927526886
AEROCUBE 8D             
1 41852U 16067E   26179.57660226  .00007170  00000+0  29440-3 0  9995
2 41852  98.0671  50.6147 0005039  96.4630 263.7179 15.24552278527809
AEROCUBE 8C             
1 41853U 16067F   26179.59971662  .00007129  00000+0  29050-3 0  9998
2 41853  98.0542  47.8522 0005898  37.3241 322.8403 15.24803516527808
CORVUS BC2              
1 42846U 17042X   26179.95268257  .00002430  00000+0  16879-3 0  9999
2 42846  97.4067 340.8458 0014461  74.3258 285.9564 15.06365407488833
CORVUS BC1              
1 42847U 17042Y   26179.68031749  .00002902  00000+0  20003-3 0  9992
2 42847  97.4095 341.4054 0012868  53.7723 306.4692 15.06527110488822
MAKERSAT 0              
1 43016U 17073D   26179.60833345  .00016135  00000+0  43423-3 0  9993
2 43016  97.4612  62.2183 0104830 231.6102 127.5690 15.32461094468214
